K08GB0D 24.5   0.15 K148U 340.14906  100.92350  213.13445    5.34651  0.2544547  0.95302245   1.0226663  5 MPO140763   108   1   10 days 0.46 M-v 3Eh MPCADO     2803          2008 GD110         20080423
K08GB0E 22.3   0.15 K148U  49.78966  153.51312   53.62267    3.88490  0.3946455  0.33136555   2.0682251  1 MPO221121    60   3 2005-2011 0.48 M-v 38h MPCALB     0804          2008 GE110         20110522
K08GB0H 19.8   0.15 K148U 249.95395  248.65908  205.92927   29.24190  0.2807752  0.68634296   1.2728442  3 MPO303344    74   3 2008-2014 0.43 M-v 3Eh MPCALB     0803          2008 GH110         20140720
K08GB0J 20.5   0.15 K148U 125.62704   29.13946   38.48567   13.59226  0.8215568  0.50632930   1.5590044  3 MPO294837    69   3 2008-2014 0.43 M-v 3Eh MPCALB     0803          2008 GJ110         20140424
K08GC8E 25.8   0.15 K148U 225.93162  347.38493  182.60445    1.72226  0.4634471  0.40105895   1.8210865  9 MPO139311    12   1    2 days 0.94 M-v 3Eh MPCS       2803          2008 GE128         20080416
K08GE5J 17.8   0.15 K148U  61.55646  240.59152   43.45749   22.21169  0.5489022  0.18927627   3.0042675  4 MPO176258    34   1   60 days 0.52 M-v 38h MPCS       2005          2008 GJ145         20080605
K08H00E 18.1   0.15 K148U 326.23608  185.36390  215.28346    9.77543  0.9499297  0.28935306   2.2638657  2 MPO201120   159   2 2008-2011 0.48 M-v 3Eh MPCALB     1803          2008 HE            20110622
K08H00G 23.8   0.15 K148U  23.49084  198.03648   43.03126    5.88950  0.5048760  0.32372571   2.1006382  6 MPO140764    84   1   19 days 0.52 M-v 3Eh MPCADO     2804          2008 HG            20080513
K08H00H 21.9   0.15 K148U 297.71940  115.96497  196.70256   16.31758  0.3557938  0.61721768   1.3661880  5 MPO140214    48   1   47 days 0.41 M-v 3Eh MPCALB     A803          2008 HH            20080610
K08H00J 25.8   0.15 K148U   0.25586  204.15858   47.47234    0.92604  0.4068683  0.47239391   1.6328008  5 MPO139312    78   1    6 days 0.54 M-v 3Eh MPCALB     2803          2008 HJ            20080430
K08H00K 22.2   0.15 K148U 249.21998  191.88928   34.23151   17.46864  0.5556081  0.26413121   2.4057818  6 MPO139312    78   1   13 days 0.47 M-v 3Eh MPCADO     2804          2008 HK            20080508
K08H01W 17.4   0.15 K148U 177.71397  249.24207  128.89196   10.58910  0.9606306  0.23756134   2.5819760  2 MPO260789   264   3 2008-2013 0.31 M-v 3Eh MPCADO     1803          2008 HW1           20130406
K08H01X 23.7   0.15 K148U 323.62985   48.67281  212.03283    6.75069  0.5831300  0.30017398   2.2091270  8 MPO139312    19   1    2 days 0.38 M-v 3Eh MPCS       2803          2008 HX1           20080428
K08H01Y 23.7   0.15 K148U  45.17907  108.50930   33.82829   24.63366  0.4347295  0.47274142   1.6320005  9 MPO139312    16   1    2 days 0.34 M-v 3Eh MPCS       2803          2008 HY1           20080428
K08H01Z 19.2   0.15 K148U  70.59415  311.00478   31.69855   31.53760  0.6740907  0.36290837   1.9465761  4 MPO150126    41   2 2008-2008 0.47 M-v 3Eh MPCW       0803          2008 HZ1           20081221
K08H02A 24.4   0.15 K148U 271.41565  314.42296  215.53134    1.35292  0.4053341  0.41988399   1.7662405  8 MPO139312    29   1    7 days 0.30 M-v 3Eh MPCADO     2804          2008 HA2           20080503
K08H02B 25.5   0.15 K148U 322.47009  168.06095   41.98399    0.69454  0.3823989  0.44921975   1.6884835  7 MPO139312    28   1   11 days 0.81 M-v 3Eh MPCADO     2804          2008 HB2           20080508
K08H02C 20.2   0.15 K148U 116.74200  142.99387  211.81349   45.49158  0.5224589  0.71065298   1.2436485  6 MPO140215    25   1   32 days 0.39 M-v 3Eh MPCADO     2803          2008 HC2           20080529
K08H02D 25.0   0.15 K148U 169.59378  255.45445   40.49531    2.95248  0.4460240  0.55410923   1.4680442  7 MPO139312    25   1    7 days 0.36 M-v 3Eh MPCALB     2803          2008 HD2           20080504
K08H02E 23.6   0.15 K148U  68.33814  187.27100   38.82054    9.46782  0.4575295  0.34162413   2.0266108  6 MPO140215    33   1   33 days 0.52 M-v 3Eh MPCALB     2804          2008 HE2           20080530
K08H02F 19.6   0.15 K148U 268.85771  153.69570  208.85032   14.54149  0.7456534  0.44563927   1.6975155  2 MPO258367   102   3 2008-2013 0.43 M-v 3Eh MPCADO     0803          2008 HF2           20130303
K08H03E 19.0   0.15 K148U 145.25231  130.71588  210.38256   30.97946  0.7186991  0.23426342   2.6061519  3 MPO148623    56   2 2008-2008 0.43 M-v 3Eh MPCALB     0803          2008 HE3           20081203
K08H03J 23.1   0.15 K148U 201.38813  134.16059   45.38273   18.23380  0.4736622  0.39278442   1.8465733  2 MPO262019    70   2 2008-2013 0.56 M-v 3Eh MPCADO     0803          2008 HJ3           20130514
K08H03O 18.2   0.15 K148U  68.19396  126.77499  208.12642   13.80237  0.6586198  0.19967636   2.8990227  0 MPO281893   197   2 2008-2013 0.42 M-v 3Eh MPCALB     1803          2008 HO3           20131227
K08H03Q 27.5   0.15 K148U  21.89405  334.90328  211.73287    1.78838  0.2627006  0.62384488   1.3564953  7 MPO139312    22   1    7 days 0.38 M-v 3Eh MPCALB     2804          2008 HQ3           20080506
K08H03R 24.8   0.15 K148U 231.45451   63.30522  226.15711    3.81557  0.6622583  0.26181532   2.4199479  6 MPO140215    58   1   10 days 0.47 M-v 3Eh MPCALB     2803          2008 HR3           20080509
K08H03S 21.7   0.15 K148U   2.21467    4.64898  227.82022    8.17662  0.2258724  0.62767015   1.3509784  0 MPO288457   447   3 2008-2014 0.33 M-v 3Eh MPCALB     8804          2008 HS3           20140101
K08H04T 23.2   0.15 K148U 301.26617  138.52061   36.07738   16.70919  0.2298372  0.58559855   1.4149336  8 MPO139312    21   1    5 days 0.28 M-v 3Eh MPCADO     2804          2008 HT4           20080505
K08H04U 28.2   0.15 K148U 210.09346  341.48202  221.33240    1.25761  0.0732593  0.86256593   1.0929690  3 MPO140215    64   1   41 days 0.51 M-v 3Eh MPCALB     2804          2008 HU4           20080610
K08H04V 19.6   0.15 K148U 336.60059  249.46074  224.04710   20.81720  0.2780130  0.57852744   1.4264397  1 MPO258367   219   2 2008-2013 0.40 M-v 3Eh MPCADO     0804          2008 HV4           20130314
K08H21Y 12.1   0.15 K148U  67.42499  164.07664   53.29619   11.99571  0.5066706  0.02732568  10.9166328  1 MPO241935    63   3 2007-2012 0.30 M-v 38h MPCADO     000A          2008 HY21          20120907
K08H37Y 18.4   0.15 K148U 111.17515    1.58530   26.10465   35.14236  0.3544667  0.43682208   1.7202821  2 MPO281893    45   4 2008-2013 0.47 M-v 38h MPCADO     0804          2008 HY37          20131223
K08H38A 20.4   0.15 K148U 326.92152   21.14960   45.52595   17.59411  0.1342459  0.54472475   1.4848571  3 MPO241935    40   3 2003-2012 0.32 M-v 38h MPCADO     0804          2008 HA38          20120918
K08H38B 21.2   0.15 K148U 148.12690  209.45684  102.66080    1.02080  0.4922765  0.39017307   1.8548033  0 MPO278231   172   4 2008-2013 0.39 M-v 3Eh MPCALB     8803          2008 HB38          20131027
K08H38C 26.3   0.15 K148U 166.78314  272.18523  213.38506    1.50981  0.4835623  0.67707089   1.2844384  7 MPO139316    32   1    8 days 0.60 M-v 3Eh MPCADO     2803          2008 HC38          20080508
K08H66E 21.9   0.15 K148U 283.93734   59.61840  203.28675    6.94361  0.1550748  0.60179683   1.3894282  1 MPO267464    98   2 2008-2013 0.30 M-v 38h MPCALB     0804          2008 HE66          20130808
K08J00C 26.5   0.15 K148U  32.50349   58.16337   47.90770    2.50219  0.4631897  0.92249329   1.0451066  8 MPO139317    17   1    2 days 0.64 M-v 3Eh MPCALB     2803          2008 JC            20080503
K08J00E 25.8   0.15 K148U  47.69938  316.89135   39.16751    6.96831  0.0932181  1.01028828   0.9836468  6 MPO139317    28   1    7 days 0.49 M-v 3Eh MPCALB     2802          2008 JE            20080508
K08J00G 20.8   0.15 K148U 183.52897  242.27390  128.85000    7.90683  0.2961639  0.91328353   1.0521209  3 MPO227472   124   4 2008-2012 0.50 M-v 3Eh MPCADO     8803          2008 JG            20120315
K08J00J 19.2   0.15 K148U 238.69891  219.99021   72.01989   44.55653  0.3785592  0.42845340   1.7426105  5 MPO140770   229   1   39 days 0.33 M-v 3Eh MPCADO     2804          2008 JJ            20080608
K08J00N 20.7   0.15 K148U 177.04528  158.73839  216.47878   31.97248  0.8032351  0.88230479   1.0766064  8 MPO140219    55   1   28 days 0.45 M-v 3Eh MPCALB     2803          2008 JN            20080529
K08J00P 20.8   0.15 K148U  55.66181  307.17580   31.21251   18.36714  0.6485135  0.51224967   1.5469689  3 MPO176260    42   2 2008-2010 0.59 M-v 3Eh MPCW       0803          2008 JP            20100504
K08J00Q 25.6   0.15 K148U 152.63055  259.63762  220.70092   13.70607  0.1078398  0.96167995   1.0165194  5 MPO139317    45   1   13 days 0.43 M-v 3Eh MPCALB     2803          2008 JQ            20080515
K08J02U 22.8   0.15 K148U 316.52616  175.72174   65.61838   10.65079  0.5186486  0.29462927   2.2367569  6 MPO140219   148   1   27 days 0.70 M-v 3Eh MPCADO     2804          2008 JU2           20080530
K08J02V 24.7   0.15 K148U  47.40490  138.49385   48.45849    3.18916  0.5195030  0.32675778   2.0876231  2 MPO294838    49   3 2008-2014 0.43 M-v 3Eh MPCADO     0804          2008 JV2           20140503
K08J02W 19.6   0.15 K148U 247.05186  142.15733   35.61926    8.85306  0.6365187  0.25906598   2.4370389  5 MPO140220    41   1   27 days 0.31 M-v 3Eh MPCADO     A803          2008 JW2           20080530
K08J03L 25.4   0.15 K148U   4.88685  155.54859   40.24712    0.89861  0.5442163  0.31070780   2.1589104  7 MPO139317    29   1    4 days 0.51 M-v 3Eh MPCALB     2803          2008 JL3           20080509
K08J07Z 18.6   0.15 K148U 146.81179   69.88529  218.84602   24.16845  0.6475269  0.22692920   2.6620066  2 MPO147446   209   1  183 days 0.43 M-v 3Eh MPCALB     2803          2008 JZ7           20081104
K08J08A 18.0   0.15 K148U 271.81068  231.37039   62.51760   24.20607  0.5060779  0.27983959   2.3148878  1 MPO141667    45   2 2001-2008 0.30 M-v 38h MPCK       1804          2008 JA8           20080725
